[{"OBJECT_NAME":"FLOCK 4G-6","OBJECT_ID":"2025-009BD","EPOCH":"2026-03-09T17:03:16.973568","MEAN_MOTION":15.27432125,"ECCENTRICITY":0.00023795,"INCLINATION":97.398,"RA_OF_ASC_NODE":150.7943,"ARG_OF_PERICENTER":348.2637,"MEAN_ANOMALY":11.8546,"EPHEMERIS_TYPE":0,"CLASSIFICATION_TYPE":"U","NORAD_CAT_ID":62660,"ELEMENT_SET_NO":999,"REV_AT_EPOCH":12130,"BSTAR":0.00045909501,"MEAN_MOTION_DOT":0.00012261,"MEAN_MOTION_DDOT":0},{"OBJECT_NAME":"STARLINK-35833","OBJECT_ID":"2025-265AC","EPOCH":"2026-03-09T22:08:20.691744","MEAN_MOTION":15.27594133,"ECCENTRICITY":0.00010771,"INCLINATION":42.9946,"RA_OF_ASC_NODE":277.0887,"ARG_OF_PERICENTER":296.0091,"MEAN_ANOMALY":64.065,"EPHEMERIS_TYPE":0,"CLASSIFICATION_TYPE":"U","NORAD_CAT_ID":66542,"ELEMENT_SET_NO":999,"REV_AT_EPOCH":1714,"BSTAR":0.00087240951,"MEAN_MOTION_DOT":0.00023833,"MEAN_MOTION_DDOT":0}]
